CCSDS_OMM_VERS = 2.0
CREATION_DATE  = 
ORIGINATOR     = 

OBJECT_NAME    = ALOS (DAICHI)
OBJECT_ID      = 2006-002A
CENTER_NAME    = EARTH
REF_FRAME      = TEME
TIME_SYSTEM    = UTC
MEAN_ELEMENT_THEORY = SGP/SGP4

EPOCH          = 2025-12-17T17:37:14.152512
MEAN_MOTION    = 14.69501788
ECCENTRICITY   = .00013612
INCLINATION    = 98.1098
RA_OF_ASC_NODE = 303.1864
ARG_OF_PERICENTER = 113.5739
MEAN_ANOMALY   = 246.5610

EPHEMERIS_TYPE = 0
CLASSIFICATION_TYPE = U
NORAD_CAT_ID   = 28931
ELEMENT_SET_NO = 999
REV_AT_EPOCH   = 6144
BSTAR          = .19545051E-3
MEAN_MOTION_DOT = .111E-4
MEAN_MOTION_DDOT = 0

CCSDS_OMM_VERS = 2.0
CREATION_DATE  = 
ORIGINATOR     = 

OBJECT_NAME    = H-2A R/B
OBJECT_ID      = 2006-002B
CENTER_NAME    = EARTH
REF_FRAME      = TEME
TIME_SYSTEM    = UTC
MEAN_ELEMENT_THEORY = SGP/SGP4

EPOCH          = 2025-12-17T20:56:09.717216
MEAN_MOTION    = 15.14672007
ECCENTRICITY   = .0054643
INCLINATION    = 98.2315
RA_OF_ASC_NODE = 127.0400
ARG_OF_PERICENTER = 159.0238
MEAN_ANOMALY   = 201.3251

EPHEMERIS_TYPE = 0
CLASSIFICATION_TYPE = U
NORAD_CAT_ID   = 28932
ELEMENT_SET_NO = 999
REV_AT_EPOCH   = 8204
BSTAR          = .47233104E-3
MEAN_MOTION_DOT = .8995E-4
MEAN_MOTION_DDOT = 0

CCSDS_OMM_VERS = 2.0
CREATION_DATE  = 
ORIGINATOR     = 

OBJECT_NAME    = RESURS-DK 1
OBJECT_ID      = 2006-021A
CENTER_NAME    = EARTH
REF_FRAME      = TEME
TIME_SYSTEM    = UTC
MEAN_ELEMENT_THEORY = SGP/SGP4

EPOCH          = 2025-12-17T17:24:33.145632
MEAN_MOTION    = 15.12189204
ECCENTRICITY   = .0006923
INCLINATION    = 69.9337
RA_OF_ASC_NODE = 88.9538
ARG_OF_PERICENTER = 255.5284
MEAN_ANOMALY   = 104.5114

EPHEMERIS_TYPE = 0
CLASSIFICATION_TYPE = U
NORAD_CAT_ID   = 29228
ELEMENT_SET_NO = 999
REV_AT_EPOCH   = 7513
BSTAR          = .13571917E-3
MEAN_MOTION_DOT = .2242E-4
MEAN_MOTION_DDOT = 0

CCSDS_OMM_VERS = 2.0
CREATION_DATE  = 
ORIGINATOR     = 

OBJECT_NAME    = CZ-4B R/B
OBJECT_ID      = 2006-046C
CENTER_NAME    = EARTH
REF_FRAME      = TEME
TIME_SYSTEM    = UTC
MEAN_ELEMENT_THEORY = SGP/SGP4

EPOCH          = 2025-12-17T20:26:39.791616
MEAN_MOTION    = 15.15923722
ECCENTRICITY   = .00337158
INCLINATION    = 97.5732
RA_OF_ASC_NODE = 31.9769
ARG_OF_PERICENTER = 188.5277
MEAN_ANOMALY   = 171.5387

EPHEMERIS_TYPE = 0
CLASSIFICATION_TYPE = U
NORAD_CAT_ID   = 29507
ELEMENT_SET_NO = 999
REV_AT_EPOCH   = 4764
BSTAR          = .22634771E-3
MEAN_MOTION_DOT = .433E-4
MEAN_MOTION_DDOT = 0

CCSDS_OMM_VERS = 2.0
CREATION_DATE  = 
ORIGINATOR     = 

OBJECT_NAME    = CZ-2C R/B
OBJECT_ID      = 2007-010B
CENTER_NAME    = EARTH
REF_FRAME      = TEME
TIME_SYSTEM    = UTC
MEAN_ELEMENT_THEORY = SGP/SGP4

EPOCH          = 2025-12-17T20:40:54.988320
MEAN_MOTION    = 14.20211999
ECCENTRICITY   = .00592832
INCLINATION    = 98.3976
RA_OF_ASC_NODE = 104.2548
ARG_OF_PERICENTER = 171.0838
MEAN_ANOMALY   = 189.1407

EPHEMERIS_TYPE = 0
CLASSIFICATION_TYPE = U
NORAD_CAT_ID   = 31114
ELEMENT_SET_NO = 999
REV_AT_EPOCH   = 96810
BSTAR          = .71171027E-4
MEAN_MOTION_DOT = .114E-5
MEAN_MOTION_DDOT = 0

CCSDS_OMM_VERS = 2.0
CREATION_DATE  = 
ORIGINATOR     = 

OBJECT_NAME    = COSMO-SKYMED 1
OBJECT_ID      = 2007-023A
CENTER_NAME    = EARTH
REF_FRAME      = TEME
TIME_SYSTEM    = UTC
MEAN_ELEMENT_THEORY = SGP/SGP4

EPOCH          = 2025-12-17T22:32:23.457696
MEAN_MOTION    = 14.95805864
ECCENTRICITY   = .00015612
INCLINATION    = 97.8835
RA_OF_ASC_NODE = 177.3722
ARG_OF_PERICENTER = 87.5282
MEAN_ANOMALY   = 272.6117

EPHEMERIS_TYPE = 0
CLASSIFICATION_TYPE = U
NORAD_CAT_ID   = 31598
ELEMENT_SET_NO = 999
REV_AT_EPOCH   = 268
BSTAR          = .33271996E-3
MEAN_MOTION_DOT = .3654E-4
MEAN_MOTION_DDOT = 0

CCSDS_OMM_VERS = 2.0
CREATION_DATE  = 
ORIGINATOR     = 

OBJECT_NAME    = COSMOS 2428
OBJECT_ID      = 2007-029A
CENTER_NAME    = EARTH
REF_FRAME      = TEME
TIME_SYSTEM    = UTC
MEAN_ELEMENT_THEORY = SGP/SGP4

EPOCH          = 2025-12-17T18:21:37.177632
MEAN_MOTION    = 14.12891474
ECCENTRICITY   = .00039527
INCLINATION    = 70.9365
RA_OF_ASC_NODE = 15.3287
ARG_OF_PERICENTER = 16.4342
MEAN_ANOMALY   = 343.6906

EPHEMERIS_TYPE = 0
CLASSIFICATION_TYPE = U
NORAD_CAT_ID   = 31792
ELEMENT_SET_NO = 999
REV_AT_EPOCH   = 95252
BSTAR          = .98816768E-4
MEAN_MOTION_DOT = .136E-5
MEAN_MOTION_DDOT = 0

CCSDS_OMM_VERS = 2.0
CREATION_DATE  = 
ORIGINATOR     = 

OBJECT_NAME    = SL-16 R/B
OBJECT_ID      = 2007-029B
CENTER_NAME    = EARTH
REF_FRAME      = TEME
TIME_SYSTEM    = UTC
MEAN_ELEMENT_THEORY = SGP/SGP4

EPOCH          = 2025-12-17T17:07:57.609408
MEAN_MOTION    = 14.14815208
ECCENTRICITY   = .00019869
INCLINATION    = 70.9755
RA_OF_ASC_NODE = 344.7012
ARG_OF_PERICENTER = 261.8890
MEAN_ANOMALY   = 271.1314

EPHEMERIS_TYPE = 0
CLASSIFICATION_TYPE = U
NORAD_CAT_ID   = 31793
ELEMENT_SET_NO = 999
REV_AT_EPOCH   = 95377
BSTAR          = .81950028E-4
MEAN_MOTION_DOT = .11E-5
MEAN_MOTION_DDOT = 0

CCSDS_OMM_VERS = 2.0
CREATION_DATE  = 
ORIGINATOR     = 

OBJECT_NAME    = KORONAS-FOTON
OBJECT_ID      = 2009-003A
CENTER_NAME    = EARTH
REF_FRAME      = TEME
TIME_SYSTEM    = UTC
MEAN_ELEMENT_THEORY = SGP/SGP4

EPOCH          = 2025-12-17T18:05:12.284160
MEAN_MOTION    = 15.41302335
ECCENTRICITY   = .00134334
INCLINATION    = 82.4305
RA_OF_ASC_NODE = 0.9102
ARG_OF_PERICENTER = 92.7809
MEAN_ANOMALY   = 267.4975

EPHEMERIS_TYPE = 0
CLASSIFICATION_TYPE = U
NORAD_CAT_ID   = 33504
ELEMENT_SET_NO = 999
REV_AT_EPOCH   = 93311
BSTAR          = .21313959E-3
MEAN_MOTION_DOT = .894E-4
MEAN_MOTION_DDOT = 0

CCSDS_OMM_VERS = 2.0
CREATION_DATE  = 
ORIGINATOR     = 

OBJECT_NAME    = CZ-2C R/B
OBJECT_ID      = 2011-030B
CENTER_NAME    = EARTH
REF_FRAME      = TEME
TIME_SYSTEM    = UTC
MEAN_ELEMENT_THEORY = SGP/SGP4

EPOCH          = 2025-12-17T19:07:16.221792
MEAN_MOTION    = 14.80917768
ECCENTRICITY   = .00513131
INCLINATION    = 97.8418
RA_OF_ASC_NODE = 305.7915
ARG_OF_PERICENTER = 256.7043
MEAN_ANOMALY   = 166.0445

EPHEMERIS_TYPE = 0
CLASSIFICATION_TYPE = U
NORAD_CAT_ID   = 37731
ELEMENT_SET_NO = 999
REV_AT_EPOCH   = 77797
BSTAR          = .1558981E-3
MEAN_MOTION_DOT = .1177E-4
MEAN_MOTION_DDOT = 0

CCSDS_OMM_VERS = 2.0
CREATION_DATE  = 
ORIGINATOR     = 

OBJECT_NAME    = H-2A R/B
OBJECT_ID      = 2012-025E
CENTER_NAME    = EARTH
REF_FRAME      = TEME
TIME_SYSTEM    = UTC
MEAN_ELEMENT_THEORY = SGP/SGP4

EPOCH          = 2025-12-17T20:41:29.719392
MEAN_MOTION    = 14.94481567
ECCENTRICITY   = .00440478
INCLINATION    = 98.4604
RA_OF_ASC_NODE = 307.4873
ARG_OF_PERICENTER = 219.2515
MEAN_ANOMALY   = 140.5507

EPHEMERIS_TYPE = 0
CLASSIFICATION_TYPE = U
NORAD_CAT_ID   = 38341
ELEMENT_SET_NO = 999
REV_AT_EPOCH   = 73599
BSTAR          = .16512649E-3
MEAN_MOTION_DOT = .1746E-4
MEAN_MOTION_DDOT = 0

CCSDS_OMM_VERS = 2.0
CREATION_DATE  = 
ORIGINATOR     = 

OBJECT_NAME    = SHIJIAN-16 (SJ-16)
OBJECT_ID      = 2013-057A
CENTER_NAME    = EARTH
REF_FRAME      = TEME
TIME_SYSTEM    = UTC
MEAN_ELEMENT_THEORY = SGP/SGP4

EPOCH          = 2025-12-17T23:12:00.714816
MEAN_MOTION    = 14.91997935
ECCENTRICITY   = .00177729
INCLINATION    = 74.9730
RA_OF_ASC_NODE = 339.7653
ARG_OF_PERICENTER = 307.5535
MEAN_ANOMALY   = 52.4038

EPHEMERIS_TYPE = 0
CLASSIFICATION_TYPE = U
NORAD_CAT_ID   = 39358
ELEMENT_SET_NO = 999
REV_AT_EPOCH   = 65931
BSTAR          = .8157904E-4
MEAN_MOTION_DOT = .8E-5
MEAN_MOTION_DDOT = 0

