ALOS (DAICHI)           
1 28931U 06002A   25351.73419158  .00001110  00000+0  19545-3 0  9994
2 28931  98.1098 303.1864 0001361 113.5739 246.5610 14.69501788 61443
H-2A R/B                
1 28932U 06002B   25351.87233469  .00008995  00000+0  47233-3 0  9992
2 28932  98.2315 127.0400 0054643 159.0238 201.3251 15.14672007 82049
RESURS-DK 1             
1 29228U 06021A   25351.72538363  .00002242  00000+0  13572-3 0  9995
2 29228  69.9337  88.9538 0006923 255.5284 104.5114 15.12189204 75139
CZ-4B R/B               
1 29507U 06046C   25351.85184944  .00004330  00000+0  22635-3 0  9998
2 29507  97.5732  31.9769 0033715 188.5277 171.5387 15.15923722 47640
CZ-2C R/B               
1 31114U 07010B   25351.86174755  .00000114  00000+0  71171-4 0  9993
2 31114  98.3976 104.2548 0059283 171.0838 189.1407 14.20211999968105
COSMO-SKYMED 1          
1 31598U 07023A   25351.93916039  .00003654  00000+0  33272-3 0  9991
2 31598  97.8835 177.3722 0001561  87.5282 272.6117 14.95805864  2684
COSMOS 2428             
1 31792U 07029A   25351.76501363  .00000136  00000+0  98817-4 0  9993
2 31792  70.9365  15.3287 0003952  16.4342 343.6906 14.12891474952524
SL-16 R/B               
1 31793U 07029B   25351.71386122  .00000110  00000+0  81950-4 0  9995
2 31793  70.9755 344.7012 0001986 261.8890 271.1314 14.14815208953771
KORONAS-FOTON           
1 33504U 09003A   25351.75361440  .00008940  00000+0  21314-3 0  9997
2 33504  82.4305   0.9102 0013433  92.7809 267.4975 15.41302335933114
CZ-2C R/B               
1 37731U 11030B   25351.79671553  .00001177  00000+0  15590-3 0  9993
2 37731  97.8418 305.7915 0051313 256.7043 166.0445 14.80917768777974
H-2A R/B                
1 38341U 12025E   25351.86214953  .00001746  00000+0  16513-3 0  9999
2 38341  98.4604 307.4873 0044047 219.2515 140.5507 14.94481567735992
SHIJIAN-16 (SJ-16)      
1 39358U 13057A   25351.96667494  .00000800  00000+0  81579-4 0  9992
2 39358  74.9730 339.7653 0017772 307.5535  52.4038 14.91997935659311
